{"type": "FeatureCollection", "features": [ {"type": "Feature", "properties": {"norad_id": 29782, "name": "FENGYUN 1C DEB", "group": "fengyun-1c-debris", "lat": 60.409146346739874, "lon": 18.82758678734781, "alt_km": 884.0224227908038, "timestamp": "2025-12-07T16:44:04.182473+00:00", "meta": {"OBJECT_NAME": "FENGYUN 1C DEB", "OBJECT_ID": "1999-025BY", "EPOCH": "2025-12-06T17:11:42.074016", "MEAN_MOTION": 14.11619719, "ECCENTRICITY": 0.00551749, "INCLINATION": 99.1002, "RA_OF_ASC_NODE": 34.2276, "ARG_OF_PERICENTER": 219.537, "MEAN_ANOMALY": 260.9257, "EPHEMERIS_TYPE": 0, "CLASSIFICATION_TYPE": "U", "NORAD_CAT_ID": 29782, "ELEMENT_SET_NO": 999, "REV_AT_EPOCH": 96586, "BSTAR": 0.0023802975, "MEAN_MOTION_DOT": 4.345e-05, "MEAN_MOTION_DDOT": 0}, "tle": {"line1": "1 29782U 99025BY  25340.71645919  .00004345  00000+0  23803-2 0  9992", "line2": "2 29782  99.1002  34.2276 0055174 219.5370 260.9257 14.11619719965869"}}, "geometry": {"type": "Point", "coordinates": [18.82758678734781, 60.409146346739874]}}, {"type": "Feature", "properties": {"norad_id": 29784, "name": "FENGYUN 1C DEB", "group": "fengyun-1c-debris", "lat": -50.23821905454265, "lon": 69.43892014250044, "alt_km": 789.9757797430639, "timestamp": "2025-12-07T16:44:04.182484+00:00", "meta": {"OBJECT_NAME": "FENGYUN 1C DEB", "OBJECT_ID": "1999-025CA", "EPOCH": "2025-12-06T17:57:41.874048", "MEAN_MOTION": 14.30556141, "ECCENTRICITY": 0.00597401, "INCLINATION": 98.9449, "RA_OF_ASC_NODE": 259.375, "ARG_OF_PERICENTER": 315.059, "MEAN_ANOMALY": 72.7048, "EPHEMERIS_TYPE": 0, "CLASSIFICATION_TYPE": "U", "NORAD_CAT_ID": 29784, "ELEMENT_SET_NO": 999, "REV_AT_EPOCH": 98274, "BSTAR": 0.0011193702, "MEAN_MOTION_DOT": 2.93e-05, "MEAN_MOTION_DDOT": 0}, "tle": {"line1": "1 29784U 99025CA  25340.74840132  .00002930  00000+0  11194-2 0  9999", "line2": "2 29784  98.9449 259.3750 0059740 315.0590  72.7048 14.30556141982742"}}, "geometry": {"type": "Point", "coordinates": [69.43892014250044, -50.23821905454265]}}, {"type": "Feature", "properties": {"norad_id": 29786, "name": "FENGYUN 1C DEB", "group": "fengyun-1c-debris", "lat": -19.80511026370394, "lon": 175.89385841826137, "alt_km": 893.1237902988705, "timestamp": "2025-12-07T16:44:04.182494+00:00", "meta": {"OBJECT_NAME": "FENGYUN 1C DEB", "OBJECT_ID": "1999-025CC", "EPOCH": "2025-12-06T23:02:55.643136", "MEAN_MOTION": 14.09078865, "ECCENTRICITY": 0.00771962, "INCLINATION": 98.736, "RA_OF_ASC_NODE": 358.3537, "ARG_OF_PERICENTER": 319.5641, "MEAN_ANOMALY": 105.156, "EPHEMERIS_TYPE": 0, "CLASSIFICATION_TYPE": "U", "NORAD_CAT_ID": 29786, "ELEMENT_SET_NO": 999, "REV_AT_EPOCH": 97079, "BSTAR": 0.00025373925, "MEAN_MOTION_DOT": 4.09e-06, "MEAN_MOTION_DDOT": 0}, "tle": {"line1": "1 29786U 99025CC  25340.96036624  .00000409  00000+0  25374-3 0  9993", "line2": "2 29786  98.7360 358.3537 0077196 319.5641 105.1560 14.09078865970798"}}, "geometry": {"type": "Point", "coordinates": [175.89385841826137, -19.80511026370394]}}, {"type": "Feature", "properties": {"norad_id": 29788, "name": "FENGYUN 1C DEB", "group": "fengyun-1c-debris", "lat": -9.201149010884906, "lon": -128.12639349263702, "alt_km": 779.5247840672682, "timestamp": "2025-12-07T16:44:04.182504+00:00", "meta": {"OBJECT_NAME": "FENGYUN 1C DEB", "OBJECT_ID": "1999-025CE", "EPOCH": "2025-12-06T21:33:31.711680", "MEAN_MOTION": 14.25904826, "ECCENTRICITY": 0.00429146, "INCLINATION": 98.7843, "RA_OF_ASC_NODE": 52.5082, "ARG_OF_PERICENTER": 205.4439, "MEAN_ANOMALY": 204.7656, "EPHEMERIS_TYPE": 0, "CLASSIFICATION_TYPE": "U", "NORAD_CAT_ID": 29788, "ELEMENT_SET_NO": 999, "REV_AT_EPOCH": 97272, "BSTAR": 0.0026532756, "MEAN_MOTION_DOT": 6.341e-05, "MEAN_MOTION_DDOT": 0}, "tle": {"line1": "1 29788U 99025CE  25340.89828370  .00006341  00000+0  26533-2 0  9992", "line2": "2 29788  98.7843  52.5082 0042914 205.4439 204.7656 14.25904826972722"}}, "geometry": {"type": "Point", "coordinates": [-128.12639349263702, -9.201149010884906]}}, {"type": "Feature", "properties": {"norad_id": 29789, "name": "FENGYUN 1C DEB", "group": "fengyun-1c-debris", "lat": -11.425942291609642, "lon": -17.225541255020122, "alt_km": 1093.194230029584, "timestamp": "2025-12-07T16:44:04.182515+00:00", "meta": {"OBJECT_NAME": "FENGYUN 1C DEB", "OBJECT_ID": "1999-025CF", "EPOCH": "2025-12-05T10:52:30.940032", "MEAN_MOTION": 13.54214224, "ECCENTRICITY": 0.02983807, "INCLINATION": 99.452, "RA_OF_ASC_NODE": 162.5558, "ARG_OF_PERICENTER": 297.1839, "MEAN_ANOMALY": 122.7571, "EPHEMERIS_TYPE": 0, "CLASSIFICATION_TYPE": "U", "NORAD_CAT_ID": 29789, "ELEMENT_SET_NO": 999, "REV_AT_EPOCH": 92889, "BSTAR": 0.0021158118, "MEAN_MOTION_DOT": 1.866e-05, "MEAN_MOTION_DDOT": 0}, "tle": {"line1": "1 29789U 99025CF  25339.45313588  .00001866  00000+0  21158-2 0  9998", "line2": "2 29789  99.4520 162.5558 0298380 297.1839 122.7571 13.54214224928896"}}, "geometry": {"type": "Point", "coordinates": [-17.225541255020122, -11.425942291609642]}}, {"type": "Feature", "properties": {"norad_id": 29790, "name": "FENGYUN 1C DEB", "group": "fengyun-1c-debris", "lat": -10.349962666715195, "lon": -22.865168505738907, "alt_km": 839.0992481460389, "timestamp": "2025-12-07T16:44:04.182525+00:00", "meta": {"OBJECT_NAME": "FENGYUN 1C DEB", "OBJECT_ID": "1999-025CG", "EPOCH": "2025-12-06T22:20:27.794400", "MEAN_MOTION": 14.3225491, "ECCENTRICITY": 0.00762423, "INCLINATION": 99.147, "RA_OF_ASC_NODE": 334.6408, "ARG_OF_PERICENTER": 193.4094, "MEAN_ANOMALY": 166.5063, "EPHEMERIS_TYPE": 0, "CLASSIFICATION_TYPE": "U", "NORAD_CAT_ID": 29790, "ELEMENT_SET_NO": 999, "REV_AT_EPOCH": 98442, "BSTAR": 0.00049765814, "MEAN_MOTION_DOT": 1.337e-05, "MEAN_MOTION_DDOT": 0}, "tle": {"line1": "1 29790U 99025CG  25340.93087725  .00001337  00000+0  49766-3 0  9995", "line2": "2 29790  99.1470 334.6408 0076242 193.4094 166.5063 14.32254910984423"}}, "geometry": {"type": "Point", "coordinates": [-22.865168505738907, -10.349962666715195]}}, {"type": "Feature", "properties": {"norad_id": 29791, "name": "FENGYUN 1C DEB", "group": "fengyun-1c-debris", "lat": 10.108152398824297, "lon": 163.4338010939479, "alt_km": 702.0376435418357, "timestamp": "2025-12-07T16:44:04.182535+00:00", "meta": {"OBJECT_NAME": "FENGYUN 1C DEB", "OBJECT_ID": "1999-025CH", "EPOCH": "2025-12-06T23:45:41.910624", "MEAN_MOTION": 14.58125025, "ECCENTRICITY": 0.00416538, "INCLINATION": 99.0354, "RA_OF_ASC_NODE": 341.0405, "ARG_OF_PERICENTER": 79.0125, "MEAN_ANOMALY": 340.0025, "EPHEMERIS_TYPE": 0, "CLASSIFICATION_TYPE": "U", "NORAD_CAT_ID": 29791, "ELEMENT_SET_NO": 999, "REV_AT_EPOCH": 98762, "BSTAR": 0.0024546455, "MEAN_MOTION_DOT": 0.00011406, "MEAN_MOTION_DDOT": 0}, "tle": {"line1": "1 29791U 99025CH  25340.99006841  .00011406  00000+0  24546-2 0  9998", "line2": "2 29791  99.0354 341.0405 0041653  79.0125 340.0025 14.58125025987629"}}, "geometry": {"type": "Point", "coordinates": [163.4338010939479, 10.108152398824297]}}, {"type": "Feature", "properties": {"norad_id": 29792, "name": "FENGYUN 1C DEB", "group": "fengyun-1c-debris", "lat": -68.2028999222319, "lon": -170.3177338558624, "alt_km": 882.1313669986193, "timestamp": "2025-12-07T16:44:04.182545+00:00", "meta": {"OBJECT_NAME": "FENGYUN 1C DEB", "OBJECT_ID": "1999-025CJ", "EPOCH": "2025-12-06T15:48:04.758624", "MEAN_MOTION": 14.15111327, "ECCENTRICITY": 0.00483229, "INCLINATION": 98.7574, "RA_OF_ASC_NODE": 31.334, "ARG_OF_PERICENTER": 54.0017, "MEAN_ANOMALY": 306.5622, "EPHEMERIS_TYPE": 0, "CLASSIFICATION_TYPE": "U", "NORAD_CAT_ID": 29792, "ELEMENT_SET_NO": 999, "REV_AT_EPOCH": 96853, "BSTAR": 0.0022131132, "MEAN_MOTION_DOT": 4.3e-05, "MEAN_MOTION_DDOT": 0}, "tle": {"line1": "1 29792U 99025CJ  25340.65838841  .00004300  00000+0  22131-2 0  9998", "line2": "2 29792  98.7574  31.3340 0048322  54.0017 306.5622 14.15111327968532"}}, "geometry": {"type": "Point", "coordinates": [-170.3177338558624, -68.2028999222319]}}, {"type": "Feature", "properties": {"norad_id": 29793, "name": "FENGYUN 1C DEB", "group": "fengyun-1c-debris", "lat": 53.20930447766707, "lon": -7.772071763319805, "alt_km": 956.1326160560047, "timestamp": "2025-12-07T16:44:04.182556+00:00", "meta": {"OBJECT_NAME": "FENGYUN 1C DEB", "OBJECT_ID": "1999-025CK", "EPOCH": "2025-12-06T11:08:21.533568", "MEAN_MOTION": 14.01049723, "ECCENTRICITY": 0.01439912, "INCLINATION": 98.3544, "RA_OF_ASC_NODE": 159.7671, "ARG_OF_PERICENTER": 356.0415, "MEAN_ANOMALY": 32.4632, "EPHEMERIS_TYPE": 0, "CLASSIFICATION_TYPE": "U", "NORAD_CAT_ID": 29793, "ELEMENT_SET_NO": 999, "REV_AT_EPOCH": 96061, "BSTAR": 0.0016536555, "MEAN_MOTION_DOT": 2.674e-05, "MEAN_MOTION_DDOT": 0}, "tle": {"line1": "1 29793U 99025CK  25340.46413812  .00002674  00000+0  16537-2 0  9990", "line2": "2 29793  98.3544 159.7671 0143991 356.0415  32.4632 14.01049723960615"}}, "geometry": {"type": "Point", "coordinates": [-7.772071763319805, 53.20930447766707]}}, {"type": "Feature", "properties": {"norad_id": 29794, "name": "FENGYUN 1C DEB", "group": "fengyun-1c-debris", "lat": -69.56269804920761, "lon": 163.54371601722983, "alt_km": 936.0750867277129, "timestamp": "2025-12-07T16:44:04.182567+00:00", "meta": {"OBJECT_NAME": "FENGYUN 1C DEB", "OBJECT_ID": "1999-025CL", "EPOCH": "2025-12-06T22:55:54.590880", "MEAN_MOTION": 14.08979885, "ECCENTRICITY": 0.01573381, "INCLINATION": 98.1991, "RA_OF_ASC_NODE": 140.106, "ARG_OF_PERICENTER": 57.0522, "MEAN_ANOMALY": 72.8262, "EPHEMERIS_TYPE": 0, "CLASSIFICATION_TYPE": "U", "NORAD_CAT_ID": 29794, "ELEMENT_SET_NO": 999, "REV_AT_EPOCH": 96766, "BSTAR": 0.00088504967, "MEAN_MOTION_DOT": 1.68e-05, "MEAN_MOTION_DDOT": 0}, "tle": {"line1": "1 29794U 99025CL  25340.95549295  .00001680  00000+0  88505-3 0  9991", "line2": "2 29794  98.1991 140.1060 0157338  57.0522  72.8262 14.08979885967660"}}, "geometry": {"type": "Point", "coordinates": [163.54371601722983, -69.56269804920761]}}]}